*******************************************************************************
Ephemeris / WWW_USER Fri Mar  7 11:00:42 2025 Pasadena, USA      / Horizons    
*******************************************************************************
Target body name: (2018 TZ5)                      {source: JPL#13}
Center body name: Earth (399)                     {source: DE441}
Center-site name: Mauna Kea
*******************************************************************************
Start time      : A.D. 2018-Aug-04 05:07:00.0000 UT      
Stop  time      : A.D. 2018-Aug-04 15:49:00.0000 UT      
Step-size       : 1 minutes
*******************************************************************************
Target pole/equ : undefined
Target radii    : undefined                                                    
Center geodetic : 204.5278, 19.8260847, 4.21024   {E-lon(deg),Lat(deg),Alt(km)}
Center cylindric: 204.5278, 6006.35451, 2151.0229 {E-lon(deg),Dxy(km),Dz(km)}
Center pole/equ : ITRF93                          {East-longitude positive}
Center radii    : 6378.137, 6378.137, 6356.752 km {Equator_a, b, pole_c}       
Target primary  : Sun
Vis. interferer : MOON (R_eq= 1737.400) km        {source: DE441}
Rel. light bend : Sun                             {source: DE441}
Rel. lght bnd GM: 1.3271E+11 km^3/s^2                                          
Small-body perts: Yes                             {source: SB441-N16}
Atmos refraction: NO (AIRLESS)
RA format       : HMS
Time format     : CAL 
Calendar mode   : Mixed Julian/Gregorian
RTS-only print  : NO       
EOP file        : eop.250306.p250602                                           
EOP coverage    : DATA-BASED 1962-JAN-20 TO 2025-MAR-06. PREDICTS-> 2025-JUN-01
Units conversion: 1 au= 149597870.700 km, c= 299792.458 km/s, 1 day= 86400.0 s 
Table cut-offs 1: Elevation (-90.0deg=NO ),Airmass (>38.000=NO), Daylight (YES)
Table cut-offs 2: Solar elongation (  0.0,180.0=NO ),Local Hour Angle( 0.0=NO )
Table cut-offs 3: RA/DEC angular rate (     0.0=NO )                           
*******************************************************************************
Initial IAU76/J2000 heliocentric ecliptic osculating elements (au, days, deg.):
  EPOCH=  2458421.5 ! 2018-Oct-30.00 (TDB)         Residual RMS= .3052         
   EC= .5505022016549632   QR= .8932716909804733   TP= 2458367.6074299323      
   OM= 132.9772150011661   W=  197.0626448515302   IN= 1.165364587967566       
  Equivalent ICRF heliocentric cartesian coordinates (au, au/d):
   X= 9.139681807821705E-01  Y= 6.232256283970929E-01  Z= 2.452583568287751E-01
  VX=-4.619682259947144E-03 VY= 1.729028462648113E-02 VZ= 7.287606215643615E-03
Asteroid physical parameters (km, seconds, rotational period in hours):        
   GM= n.a.                RAD= n.a.               ROTPER= n.a.                
   H= 24.4                 G= .150                 B-V= n.a.                   
                           ALBEDO= n.a.            STYP= n.a.                  
*******************************************************************************
 Date__(UT)__HR:MN     R.A._________(ICRF)_________DEC
******************************************************
$$SOE
 2018-Aug-04 13:19  m  13 38 32.064299 -08 56 05.51334
 2018-Aug-04 13:20  m  13 38 32.123143 -08 56 05.92778
 2018-Aug-04 13:21  m  13 38 32.181998 -08 56 06.34227
 2018-Aug-04 13:22  m  13 38 32.240864 -08 56 06.75682
 2018-Aug-04 13:23  m  13 38 32.299742 -08 56 07.17142
 2018-Aug-04 13:24  m  13 38 32.358631 -08 56 07.58607
 2018-Aug-04 13:25  m  13 38 32.417531 -08 56 08.00078
 2018-Aug-04 13:26  m  13 38 32.476442 -08 56 08.41554
 2018-Aug-04 13:27  m  13 38 32.535364 -08 56 08.83035
 2018-Aug-04 13:28  m  13 38 32.594297 -08 56 09.24522
 2018-Aug-04 13:29  m  13 38 32.653241 -08 56 09.66014
 2018-Aug-04 13:30  m  13 38 32.712195 -08 56 10.07512
 2018-Aug-04 13:31  m  13 38 32.771160 -08 56 10.49015
 2018-Aug-04 13:32  m  13 38 32.830135 -08 56 10.90523
 2018-Aug-04 13:33  m  13 38 32.889121 -08 56 11.32037
 2018-Aug-04 13:34  m  13 38 32.948118 -08 56 11.73557
 2018-Aug-04 13:35  m  13 38 33.007124 -08 56 12.15081
 2018-Aug-04 13:36  m  13 38 33.066141 -08 56 12.56612
 2018-Aug-04 13:37  m  13 38 33.125167 -08 56 12.98148
 2018-Aug-04 13:38  m  13 38 33.184204 -08 56 13.39689
 2018-Aug-04 13:39  m  13 38 33.243250 -08 56 13.81236
 2018-Aug-04 13:40  m  13 38 33.302306 -08 56 14.22788
 2018-Aug-04 13:41  m  13 38 33.361372 -08 56 14.64346
 2018-Aug-04 13:42  m  13 38 33.420447 -08 56 15.05909
 2018-Aug-04 13:43  m  13 38 33.479532 -08 56 15.47478
 2018-Aug-04 13:44  m  13 38 33.538626 -08 56 15.89052
 2018-Aug-04 13:45  m  13 38 33.597729 -08 56 16.30632
 2018-Aug-04 13:46  m  13 38 33.656841 -08 56 16.72218
 2018-Aug-04 13:47  m  13 38 33.715963 -08 56 17.13809
 2018-Aug-04 13:48  m  13 38 33.775093 -08 56 17.55405
 2018-Aug-04 13:49  m  13 38 33.834233 -08 56 17.97008
 2018-Aug-04 13:50  m  13 38 33.893381 -08 56 18.38616
 2018-Aug-04 13:51  m  13 38 33.952538 -08 56 18.80229
 2018-Aug-04 13:52  m  13 38 34.011703 -08 56 19.21848
 2018-Aug-04 13:53  m  13 38 34.070877 -08 56 19.63473
 2018-Aug-04 13:54  m  13 38 34.130059 -08 56 20.05103
 2018-Aug-04 13:55  m  13 38 34.189250 -08 56 20.46739
 2018-Aug-04 13:56  m  13 38 34.248448 -08 56 20.88381
 2018-Aug-04 13:57  m  13 38 34.307655 -08 56 21.30028
 2018-Aug-04 13:58  m  13 38 34.366870 -08 56 21.71681
 2018-Aug-04 13:59  m  13 38 34.426092 -08 56 22.13340
 2018-Aug-04 14:00  m  13 38 34.485323 -08 56 22.55004
 2018-Aug-04 14:01  m  13 38 34.544561 -08 56 22.96674
 2018-Aug-04 14:02  m  13 38 34.603807 -08 56 23.38349
 2018-Aug-04 14:03  m  13 38 34.663060 -08 56 23.80031
 2018-Aug-04 14:04  m  13 38 34.722321 -08 56 24.21718
 2018-Aug-04 14:05  m  13 38 34.781588 -08 56 24.63411
 2018-Aug-04 14:06  m  13 38 34.840864 -08 56 25.05109
 2018-Aug-04 14:07  m  13 38 34.900146 -08 56 25.46813
 2018-Aug-04 14:08  m  13 38 34.959435 -08 56 25.88523
 2018-Aug-04 14:09  m  13 38 35.018731 -08 56 26.30239
 2018-Aug-04 14:10  m  13 38 35.078034 -08 56 26.71961
 2018-Aug-04 14:11  m  13 38 35.137344 -08 56 27.13688
 2018-Aug-04 14:12  m  13 38 35.196660 -08 56 27.55421
 2018-Aug-04 14:13  m  13 38 35.255982 -08 56 27.97159
 2018-Aug-04 14:14  m  13 38 35.315311 -08 56 28.38904
 2018-Aug-04 14:15  m  13 38 35.374647 -08 56 28.80654
 2018-Aug-04 14:16  m  13 38 35.433988 -08 56 29.22410
 2018-Aug-04 14:17  m  13 38 35.493336 -08 56 29.64172
 2018-Aug-04 14:18  m  13 38 35.552690 -08 56 30.05940
 2018-Aug-04 14:19  m  13 38 35.612049 -08 56 30.47713
 2018-Aug-04 14:20  m  13 38 35.671414 -08 56 30.89493
 2018-Aug-04 14:21  m  13 38 35.730785 -08 56 31.31278
 2018-Aug-04 14:22  m  13 38 35.790162 -08 56 31.73069
 2018-Aug-04 14:23  m  13 38 35.849544 -08 56 32.14865
 2018-Aug-04 14:24  m  13 38 35.908932 -08 56 32.56668
 2018-Aug-04 14:25  m  13 38 35.968324 -08 56 32.98476
 2018-Aug-04 14:26  m  13 38 36.027722 -08 56 33.40290
 2018-Aug-04 14:27  m  13 38 36.087125 -08 56 33.82110
 2018-Aug-04 14:28  m  13 38 36.146533 -08 56 34.23936
 2018-Aug-04 14:29  m  13 38 36.205946 -08 56 34.65768
 2018-Aug-04 14:30  m  13 38 36.265364 -08 56 35.07606
 2018-Aug-04 14:31  m  13 38 36.324786 -08 56 35.49449
 2018-Aug-04 14:32  m  13 38 36.384213 -08 56 35.91299
 2018-Aug-04 14:33  m  13 38 36.443644 -08 56 36.33154
 2018-Aug-04 14:34  m  13 38 36.503080 -08 56 36.75015
 2018-Aug-04 14:35  m  13 38 36.562520 -08 56 37.16882
 2018-Aug-04 14:36  m  13 38 36.621964 -08 56 37.58755
 2018-Aug-04 14:37  m  13 38 36.681412 -08 56 38.00633
 2018-Aug-04 14:38  m  13 38 36.740864 -08 56 38.42518
 2018-Aug-04 14:39  m  13 38 36.800320 -08 56 38.84408
 2018-Aug-04 14:40 Am  13 38 36.859780 -08 56 39.26305
 2018-Aug-04 14:41 Am  13 38 36.919243 -08 56 39.68207
 2018-Aug-04 14:42 Am  13 38 36.978710 -08 56 40.10115
 2018-Aug-04 14:43 Am  13 38 37.038180 -08 56 40.52029
 2018-Aug-04 14:44 Am  13 38 37.097654 -08 56 40.93949
 2018-Aug-04 14:45 Am  13 38 37.157131 -08 56 41.35875
 2018-Aug-04 14:46 Am  13 38 37.216611 -08 56 41.77807
 2018-Aug-04 14:47 Am  13 38 37.276094 -08 56 42.19745
 2018-Aug-04 14:48 Am  13 38 37.335580 -08 56 42.61689
 2018-Aug-04 14:49 Am  13 38 37.395069 -08 56 43.03638
 2018-Aug-04 14:50 Am  13 38 37.454560 -08 56 43.45594
 2018-Aug-04 14:51 Am  13 38 37.514054 -08 56 43.87555
 2018-Aug-04 14:52 Am  13 38 37.573551 -08 56 44.29522
 2018-Aug-04 14:53 Am  13 38 37.633050 -08 56 44.71496
 2018-Aug-04 14:54 Am  13 38 37.692551 -08 56 45.13475
 2018-Aug-04 14:55 Am  13 38 37.752055 -08 56 45.55460
 2018-Aug-04 14:56 Am  13 38 37.811561 -08 56 45.97451
 2018-Aug-04 14:57 Am  13 38 37.871068 -08 56 46.39448
 2018-Aug-04 14:58 Am  13 38 37.930578 -08 56 46.81451
 2018-Aug-04 14:59 Am  13 38 37.990089 -08 56 47.23460
 2018-Aug-04 15:00 Am  13 38 38.049602 -08 56 47.65475
 2018-Aug-04 15:01 Am  13 38 38.109117 -08 56 48.07496
 2018-Aug-04 15:02 Am  13 38 38.168633 -08 56 48.49522
 2018-Aug-04 15:03 Am  13 38 38.228150 -08 56 48.91555
 2018-Aug-04 15:04 Am  13 38 38.287669 -08 56 49.33594
 2018-Aug-04 15:05 Am  13 38 38.347189 -08 56 49.75638
 2018-Aug-04 15:06 Am  13 38 38.406709 -08 56 50.17689
 2018-Aug-04 15:07 Am  13 38 38.466231 -08 56 50.59745
 2018-Aug-04 15:08 Nm  13 38 38.525754 -08 56 51.01808
 2018-Aug-04 15:09 Nm  13 38 38.585277 -08 56 51.43876
 2018-Aug-04 15:10 Nm  13 38 38.644802 -08 56 51.85950
 2018-Aug-04 15:11 Nm  13 38 38.704326 -08 56 52.28030
 2018-Aug-04 15:12 Nm  13 38 38.763851 -08 56 52.70117
 2018-Aug-04 15:13 Nm  13 38 38.823377 -08 56 53.12209
 2018-Aug-04 15:14 Nm  13 38 38.882902 -08 56 53.54307
 2018-Aug-04 15:15 Nm  13 38 38.942428 -08 56 53.96411
 2018-Aug-04 15:16 Nm  13 38 39.001954 -08 56 54.38521
 2018-Aug-04 15:17 Nm  13 38 39.061479 -08 56 54.80637
 2018-Aug-04 15:18 Nm  13 38 39.121005 -08 56 55.22759
 2018-Aug-04 15:19 Nm  13 38 39.180530 -08 56 55.64887
 2018-Aug-04 15:20 Nm  13 38 39.240055 -08 56 56.07020
 2018-Aug-04 15:21 Nm  13 38 39.299579 -08 56 56.49160
